     2.100          NAVIGATION                              RINEX VERSION / TYPE
fic2rin                                 05/24/2013 00:34:05 PGM / RUN BY / DATE
                                                            END OF HEADER
 3 13  5 23 14  0  0.0  .210653059185D-03  .511590769747D-11  .000000000000D+00
     .330000000000D+02  .359375000000D+02  .508164024214D-08  .249390206014D+01
     .175274908543D-05  .162288508145D-01  .805966556072D-05  .515369084358D+04
     .396000000000D+06  .214204192162D-06 -.253184254502D+01 -.894069671631D-07
     .934534747192D+00  .207093750000D+03  .128837325924D+01 -.804033491222D-08
     .648955603034D-09  .100000000000D+01  .174100000000D+04  .000000000000D+00
     .340000000000D+01  .000000000000D+00 -.465661287308D-08  .330000000000D+02
     .388806000000D+06  .400000000000D+01
 4 13  5 23 14  0  0.0  .225812662393D-03  .104591890704D-10  .000000000000D+00
     .320000000000D+02 -.352500000000D+02  .544344102688D-08 -.764880416957D+00
    -.151060521603D-05  .103140383726D-01  .616163015366D-05  .515378196526D+04
     .396000000000D+06  .484287738800D-07 -.134546338859D+01  .165775418282D-06
     .937321594430D+00  .246875000000D+03  .978538847568D+00 -.862321633443D-08
    -.384301721995D-09  .100000000000D+01  .174100000000D+04  .000000000000D+00
     .240000000000D+01  .000000000000D+00 -.605359673500D-08  .320000000000D+02
     .388806000000D+06  .400000000000D+01
 5 13  5 23 14  0  0.0 -.395336654037D-03 -.909494701773D-12  .000000000000D+00
     .380000000000D+02  .631875000000D+02  .448090093322D-08 -.175605499707D+01
     .302493572235D-05  .304759526625D-02  .132229179144D-04  .515363008690D+04
     .396000000000D+06 -.260770320892D-07 -.296700175165D+00 -.521540641785D-07
     .949097172107D+00  .116062500000D+03  .265877158325D+00 -.788890003292D-08
    -.183936233111D-09  .100000000000D+01  .174100000000D+04  .000000000000D+00
     .240000000000D+01  .000000000000D+00 -.102445483208D-07  .380000000000D+02
     .388806000000D+06  .400000000000D+01
 6 13  5 23 14  0  0.0  .219794921577D-03 -.164845914696D-10  .000000000000D+00
     .250000000000D+02  .388437500000D+02  .507628287613D-08 -.194851712278D+01
     .203028321266D-05  .807825371157D-02  .781565904617D-05  .515367403603D+04
     .396000000000D+06 -.875443220139D-07 -.245242401845D+01  .111758708954D-07
     .941100591246D+00  .221937500000D+03 -.318979909879D+00 -.829534553444D-08
     .718958518937D-09  .100000000000D+01  .174100000000D+04  .000000000000D+00
     .240000000000D+01  .000000000000D+00 -.512227416039D-08  .250000000000D+02
     .388806000000D+06  .400000000000D+01
 7 13  5 23 14  0  0.0  .216982327402D-03  .420641299570D-11  .000000000000D+00
     .280000000000D+02 -.107375000000D+03  .456340436982D-08  .942926845511D+00
    -.543892383575D-05  .636630866211D-02  .233016908169D-05  .515369095421D+04
     .396000000000D+06  .465661287308D-07  .182033025003D+01  .745058059692D-07
     .975156262053D+00  .338718750000D+03 -.293813462848D+01 -.847571019021D-08
    -.531807866218D-09  .100000000000D+01  .174100000000D+04  .000000000000D+00
     .240000000000D+01  .000000000000D+00 -.107102096081D-07  .280000000000D+02
     .388806000000D+06  .400000000000D+01
 8 13  5 23 14  0  0.0  .630645081401D-05  .227373675443D-12  .000000000000D+00
     .520000000000D+02 -.116343750000D+03  .397552273934D-08  .385133431153D+00
    -.613555312157D-05  .129336867249D-01  .347197055817D-05  .515372336769D+04
     .396000000000D+06  .139698386192D-06  .191155465277D+01  .149011611938D-06
     .997903630235D+00  .327437500000D+03 -.287578032741D+01 -.823355724642D-08
    -.555380276675D-09  .100000000000D+01  .174100000000D+04  .000000000000D+00
     .240000000000D+01  .000000000000D+00 -.419095158577D-08  .520000000000D+02
     .388806000000D+06  .400000000000D+01
 9 13  5 23 14  0  0.0  .242868438363D-03  .261479726760D-11  .000000000000D+00
     .172000000000D+03 -.103156250000D+03  .421160400164D-08  .159722797077D+01
    -.596977770329D-05  .174312019954D-01  .173039734364D-05  .515278866196D+04
     .396000000000D+06  .160187482834D-06  .179707219031D+01 -.327825546265D-06
     .983780001746D+00  .357000000000D+03  .166211331031D+01 -.822248535666D-08
    -.455733268834D-09  .100000000000D+01  .174100000000D+04  .000000000000D+00
     .240000000000D+01  .000000000000D+00 -.558793544769D-08  .172000000000D+03
     .388806000000D+06  .400000000000D+01
10 13  5 23 14  0  0.0 -.808532349765D-04 -.136424205266D-11  .000000000000D+00
     .173000000000D+03  .761875000000D+02  .459054835762D-08 -.152999381971D+01
     .383891165257D-05  .124003042001D-01  .129099935293D-04  .515364353371D+04
     .396000000000D+06  .242143869400D-06 -.277253477863D+00 -.106170773506D-06
     .943937977914D+00  .115781250000D+03  .800590523763D+00 -.786425614926D-08
    -.138220043134D-09  .100000000000D+01  .174100000000D+04  .000000000000D+00
     .340000000000D+01  .000000000000D+00 -.279396772385D-08  .173000000000D+03
     .388806000000D+06  .400000000000D+01
11 13  5 23 14  0  0.0 -.384633895010D-03 -.363797880709D-11  .000000000000D+00
     .770000000000D+02 -.189687500000D+02  .681206946432D-08  .114462141065D+01
    -.110268592834D-05  .139907927951D-01  .453926622868D-05  .515367500877D+04
     .396000000000D+06 -.257045030594D-06 -.163716086084D+01  .130385160446D-07
     .888437587014D+00  .255500000000D+03  .116589666631D+01 -.942467828997D-08
    -.223580741607D-09  .100000000000D+01  .174100000000D+04  .000000000000D+00
     .240000000000D+01  .000000000000D+00 -.116415321827D-07  .770000000000D+02
     .388806000000D+06  .400000000000D+01
12 13  5 23 14  0  0.0  .135344453156D-03  .204636307899D-11  .000000000000D+00
     .750000000000D+02 -.851562500000D+02  .369836833760D-08  .632128577093D+00
    -.440515577793D-05  .452427961864D-02  .118743628263D-04  .515357203674D+04
     .396000000000D+06  .670552253723D-07  .287921416187D+01  .104308128357D-06
     .984395354829D+00  .162093750000D+03  .256912977114D+00 -.756317217934D-08
     .414302971667D-10  .100000000000D+01  .174100000000D+04  .000000000000D+00
     .240000000000D+01  .000000000000D+00 -.121071934700D-07  .750000000000D+02
     .388806000000D+06  .400000000000D+01
13 13  5 23 14  0  0.0  .116518232971D-03 -.363797880709D-11  .000000000000D+00
     .970000000000D+02  .116687500000D+03  .447447209401D-08 -.294547643940D+01
     .610202550888D-05  .518691772595D-02  .255741178989D-05  .515375279045D+04
     .396000000000D+06  .372529029846D-08  .852662680252D+00  .726431608200D-07
     .981712022212D+00  .342687500000D+03  .211723317540D+01 -.826462996930D-08
     .395016454021D-09  .100000000000D+01  .174100000000D+04  .000000000000D+00
     .340000000000D+01  .000000000000D+00 -.111758708954D-07  .970000000000D+02
     .388806000000D+06  .400000000000D+01
14 13  5 23 14  0  0.0  .220790971071D-03 -.113686837722D-12  .000000000000D+00
     .200000000000D+02  .108156250000D+03  .449733018900D-08 -.276392289443D+01
     .567547976971D-05  .689197122119D-02  .295042991638D-05  .515374852371D+04
     .396000000000D+06  .188127160072D-06  .823436463365D+00 -.502914190292D-07
     .974416287367D+00  .328750000000D+03 -.203392372708D+01 -.821284209784D-08
     .313227332890D-09  .100000000000D+01  .174100000000D+04  .000000000000D+00
     .240000000000D+01  .000000000000D+00 -.884756445885D-08  .200000000000D+02
     .388806000000D+06  .400000000000D+01
15 13  5 23 14  0  0.0 -.120285898447D-03 -.159161572810D-11  .000000000000D+00
     .450000000000D+02  .130343750000D+03  .522843207090D-08  .299343399103D+01
     .678747892380D-05  .540651136544D-02  .429153442383D-05  .515376111984D+04
     .396000000000D+06 -.128522515297D-06  .723670490112D+00 -.111758708954D-07
     .941128862138D+00  .286718750000D+03  .168460369645D+00 -.846713840459D-08
     .362157942475D-09  .100000000000D+01  .174100000000D+04  .000000000000D+00
     .240000000000D+01  .000000000000D+00 -.102445483208D-07  .450000000000D+02
     .388806000000D+06  .400000000000D+01
16 13  5 23 14  0  0.0 -.251926016062D-03  .227373675443D-12  .000000000000D+00
     .500000000000D+02 -.781875000000D+02  .352836125612D-08 -.156524313512D+01
    -.412762165070D-05  .715813017450D-02  .128652900457D-04  .515364937019D+04
     .396000000000D+06 -.102445483208D-06  .289758363066D+01 -.100582838058D-06
     .985101265468D+00  .144937500000D+03  .968836735367D-01 -.744066707651D-08
     .202151277555D-09  .100000000000D+01  .174100000000D+04  .000000000000D+00
     .240000000000D+01  .000000000000D+00 -.102445483208D-07  .500000000000D+02
     .388806000000D+06  .400000000000D+01
17 13  5 23 14  0  0.0  .165710225701D-04 -.386535248253D-11  .000000000000D+00
     .220000000000D+02  .306875000000D+02  .453447459335D-08 -.258507242415D+01
     .167079269886D-05  .833198602777D-02  .731833279133D-05  .515362246895D+04
     .396000000000D+06  .502914190292D-07 -.234936229557D+01 -.949949026108D-07
     .965346299142D+00  .240312500000D+03 -.219167545299D+01 -.785461289044D-08
     .661098965997D-09  .100000000000D+01  .174100000000D+04  .000000000000D+00
     .240000000000D+01  .000000000000D+00 -.102445483208D-07  .220000000000D+02
     .388806000000D+06  .400000000000D+01
19 13  5 23 14  0  0.0 -.375226140022D-03 -.306954461848D-11  .000000000000D+00
     .880000000000D+02  .337187500000D+02  .469769567788D-08  .299592966344D+01
     .176578760147D-05  .928069581278D-02  .672228634357D-05  .515369365501D+04
     .396000000000D+06 -.540167093277D-07 -.229740965803D+01 -.633299350739D-07
     .962534304343D+00  .252281250000D+03  .303565706764D+00 -.801890544817D-08
     .581095633537D-09  .100000000000D+01  .174100000000D+04  .000000000000D+00
     .240000000000D+01  .000000000000D+00 -.149011611938D-07  .880000000000D+02
     .388806000000D+06  .400000000000D+01
